IRIDIUM 103 [+]         
1 41918U 17003B   17346.40691955  .00000029  00000-0  34284-5 0  9991
2 41918  86.3961 307.4914 0002783  93.8884 266.2630 14.34216275 47658
